[{"OBJECT_NAME":"STARLINK-5133","OBJECT_ID":"2022-125S","EPOCH":"2026-03-09T16:08:11.095296","MEAN_MOTION":15.08828557,"ECCENTRICITY":0.00013247,"INCLINATION":53.2172,"RA_OF_ASC_NODE":218.9242,"ARG_OF_PERICENTER":73.7409,"MEAN_ANOMALY":286.3729,"EPHEMERIS_TYPE":0,"CLASSIFICATION_TYPE":"U","NORAD_CAT_ID":53980,"ELEMENT_SET_NO":999,"REV_AT_EPOCH":18939,"BSTAR":-2.1459757e-5,"MEAN_MOTION_DOT":-6.29e-6,"MEAN_MOTION_DDOT":0},{"OBJECT_NAME":"JILIN-01 KUANFU 02B 1","OBJECT_ID":"2024-169A","EPOCH":"2026-03-09T22:23:47.298048","MEAN_MOTION":15.0926333,"ECCENTRICITY":0.00080135,"INCLINATION":97.5562,"RA_OF_ASC_NODE":159.9206,"ARG_OF_PERICENTER":20.9587,"MEAN_ANOMALY":339.1969,"EPHEMERIS_TYPE":0,"CLASSIFICATION_TYPE":"U","NORAD_CAT_ID":61189,"ELEMENT_SET_NO":999,"REV_AT_EPOCH":8085,"BSTAR":0.00041363535,"MEAN_MOTION_DOT":6.529e-5,"MEAN_MOTION_DDOT":0}]
